BEESAT-5                
1 48083U 21022AM  23221.14972625  .00023966  00000+0  10176-2 0  9998
2 48083  97.4770 119.9136 0017011 137.7506 222.5044 15.22940823130142
BEESAT-7                
1 48084U 21022AN  23222.19887375  .00022276  00000+0  97461-3 0  9998
2 48084  97.4866 120.8565 0017397 135.3217 224.9424 15.21931002129870
BEESAT-8                
1 48085U 21022AP  23220.95540227  .00011281  00000+0  56599-3 0  9994
2 48085  97.4926 118.8220 0018321 143.4311 216.8177 15.17339312130188
LEDSAT                  
1 49069U 21073D   23221.69893856  .00008232  00000+0  44041-3 0  9995
2 49069  97.4791 291.6921 0021995 296.0370  63.8597 15.15102949109005
SPORT                   
1 55129U 98067UW  23221.74514469  .00124694  00000+0  69370-3 0  9995
2 55129  51.6277  42.6897 0004239 287.9524  72.1014 15.78573682 34973
OPTIMAL-1               
1 55183U 98067VA  23222.36216994  .00634829  19761-3  10534-2 0  9997
2 55183  51.6343  31.0033 0009666 297.6087  62.3942 16.02333934 33907
